NORAD_CAT_ID,OBJECT_NAME,OBJECT_TYPE,EPOCH,MEAN_MOTION,ECCENTRICITY,INCLINATION,RA_OF_ASC_NODE,ARG_OF_PERICENTER,MEAN_ANOMALY,BSTAR,MEAN_MOTION_DOT,MEAN_MOTION_DDOT,TLE_LINE0,TLE_LINE1,TLE_LINE2,SEMIMAJOR_AXIS,PERIOD,APOGEE,PERIGEE,DECAYED
54009.0,STARLINK-5099,PAYLOAD,2023-09-06 00:33:40,15.08839004,0.0001309,53.2183,4.3114,82.6558,277.4583,1.9662e-05,2.5e-07,0.0,0 STARLINK-5099,1 54009U 22125AX  23249.02338351  .00000025  00000-0  19662-4 0  9990,2 54009  53.2183   4.3114 0001309  82.6558 277.4583 15.08839004 51282,6917.883,95.438,540.654,538.843,0.0
54009.0,STARLINK-5099,PAYLOAD,2023-09-06 08:30:36,15.08837056,0.0001226,53.2181,2.8231,87.7708,272.3425,6.2249e-05,7.03e-06,0.0,0 STARLINK-5099,1 54009U 22125AX  23249.35458607  .00000703  00000-0  62249-4 0  9995,2 54009  53.2181   2.8231 0001226  87.7708 272.3425 15.08837056 51288,6917.889,95.438,540.603,538.906,0.0
54009.0,STARLINK-5099,PAYLOAD,2023-09-06 18:02:54,15.08846095,0.0001189,53.2182,1.0388,90.0042,270.1086,0.00018649,2.682e-05,0.0,0 STARLINK-5099,1 54009U 22125AX  23249.75202175  .00002682  00000-0  18649-3 0  9998,2 54009  53.2182   1.0388 0001189  90.0042 270.1086 15.08846095 51348,6917.862,95.437,540.549,538.904,0.0
54009.0,STARLINK-5099,PAYLOAD,2023-09-07 09:56:46,15.08839134,0.00017,53.2183,358.0712,78.0942,282.024,0.00018904,2.722e-05,0.0,0 STARLINK-5099,1 54009U 22125AX  23250.41442991  .00002722  00000-0  18904-3 0  9994,2 54009  53.2183 358.0712 0001700  78.0942 282.0240 15.08839134 51495,6917.883,95.438,540.924,538.572,0.0
54009.0,STARLINK-5099,PAYLOAD,2023-09-07 16:18:18,15.08844627,0.0001384,53.2173,356.8776,79.7158,280.399,-6.3877e-05,-1.305e-05,0.0,0 STARLINK-5099,1 54009U 22125AX  23250.67938512 -.00001305  00000-0 -63877-4 0  9999,2 54009  53.2173 356.8776 0001384  79.7158 280.3990 15.08844627 51480,6917.866,95.437,540.689,538.774,0.0
54009.0,STARLINK-5099,PAYLOAD,2023-09-08 12:58:19,15.08842317,0.0001259,53.2183,353.0111,84.6134,275.5002,5.4433e-05,5.79e-06,0.0,0 STARLINK-5099,1 54009U 22125AX  23251.54050865  .00000579  00000-0  54433-4 0  9990,2 54009  53.2183 353.0111 0001259  84.6134 275.5002 15.08842317 51612,6917.873,95.437,540.609,538.867,0.0
54009.0,STARLINK-5099,PAYLOAD,2023-09-08 16:09:05,15.08849801,0.0001272,53.2168,352.4193,83.952,276.1617,0.00023543,3.462e-05,0.0,0 STARLINK-5099,1 54009U 22125AX  23251.67298578  .00003462  00000-0  23543-3 0  9990,2 54009  53.2168 352.4193 0001272  83.9520 276.1617 15.08849801 51685,6917.85,95.437,540.595,538.835,0.0
54009.0,STARLINK-5099,PAYLOAD,2023-09-08 19:19:51,15.08853428,0.0001062,53.2178,351.8191,84.0801,276.0312,0.00022339,3.27e-05,0.0,0 STARLINK-5099,1 54009U 22125AX  23251.80546206  .00003270  00000-0  22339-3 0  9998,2 54009  53.2178 351.8191 0001062  84.0801 276.0312 15.08853428 51656,6917.839,95.437,540.439,538.97,0.0
54009.0,STARLINK-5099,PAYLOAD,2023-09-09 00:06:02,15.08826917,0.0001063,53.2181,350.9269,101.2765,258.8346,-7.9702e-06,-4.15e-06,0.0,0 STARLINK-5099,1 54009U 22125AX  23252.00419682 -.00000415  00000-0 -79702-5 0  9996,2 54009  53.2181 350.9269 0001063 101.2765 258.8346 15.08826917 51735,6917.92,95.438,540.521,539.05,0.0
54009.0,STARLINK-5099,PAYLOAD,2023-09-09 11:13:44,15.08840003,0.0001136,53.218,348.8473,84.8196,275.2926,6.0853e-05,6.81e-06,0.0,0 STARLINK-5099,1 54009U 22125AX  23252.46787319  .00000681  00000-0  60853-4 0  9990,2 54009  53.2180 348.8473 0001136  84.8196 275.2926 15.08840003 51809,6917.88,95.438,540.531,538.96,0.0
54009.0,STARLINK-5099,PAYLOAD,2023-09-09 12:49:07,15.08844583,0.0001064,53.2174,348.5497,80.7852,279.326,0.00014436,2.011e-05,0.0,0 STARLINK-5099,1 54009U 22125AX  23252.53411155  .00002011  00000-0  14436-3 0  9994,2 54009  53.2174 348.5497 0001064  80.7852 279.3260 15.08844583 51767,6917.866,95.437,540.467,538.995,0.0
54009.0,STARLINK-5099,PAYLOAD,2023-09-10 12:39:54,15.08853265,0.0001333,53.2168,344.09,82.2718,277.8425,0.00060779,9.402e-05,0.0,0 STARLINK-5099,1 54009U 22125AX  23253.52771167  .00009402  00000-0  60779-3 0  9998,2 54009  53.2168 344.0900 0001333  82.2718 277.8425 15.08853265 51917,6917.84,95.437,540.627,538.783,0.0
54009.0,STARLINK-5099,PAYLOAD,2023-09-10 17:26:03,15.08863006,0.0001378,53.2169,343.1976,82.9361,277.1788,0.00081852,0.00012771,0.0,0 STARLINK-5099,1 54009U 22125AX  23253.72642836  .00012771  00000-0  81852-3 0  9998,2 54009  53.2169 343.1976 0001378  82.9361 277.1788 15.08863006 51998,6917.81,95.436,540.628,538.722,0.0
54009.0,STARLINK-5099,PAYLOAD,2023-09-11 10:55:18,15.08840641,0.0001225,53.2178,339.9274,87.7919,272.3214,0.00015988,2.258e-05,0.0,0 STARLINK-5099,1 54009U 22125AX  23254.45507253  .00002258  00000-0  15988-3 0  9998,2 54009  53.2178 339.9274 0001225  87.7919 272.3214 15.08840641 52100,6917.878,95.438,540.591,538.896,0.0
54009.0,STARLINK-5099,PAYLOAD,2023-09-11 12:30:41,15.08846602,0.0001303,53.2174,339.6299,91.6002,268.514,0.00028667,4.278e-05,0.0,0 STARLINK-5099,1 54009U 22125AX  23254.52131191  .00004278  00000-0  28667-3 0  9992,2 54009  53.2174 339.6299 0001303  91.6002 268.5140 15.08846602 52067,6917.86,95.437,540.627,538.824,0.0
54009.0,STARLINK-5099,PAYLOAD,2023-09-11 17:16:50,15.08852186,0.0001288,53.2176,338.7375,94.1312,265.9828,0.00046673,7.15e-05,0.0,0 STARLINK-5099,1 54009U 22125AX  23254.72003002  .00007150  00000-0  46673-3 0  9992,2 54009  53.2176 338.7375 0001288  94.1312 265.9828 15.08852186 52145,6917.843,95.437,540.599,538.817,0.0
54009.0,STARLINK-5099,PAYLOAD,2023-09-12 10:46:05,15.08845177,0.0001597,53.2182,335.4675,84.6084,275.509,0.000128,1.75e-05,0.0,0 STARLINK-5099,1 54009U 22125AX  23255.44867286  .00001750  00000-0  12800-3 0  9999,2 54009  53.2182 335.4675 0001597  84.6084 275.5090 15.08845177 52254,6917.865,95.437,540.834,538.625,0.0
54009.0,STARLINK-5099,PAYLOAD,2023-09-12 15:32:14,15.08855529,0.0001501,53.2186,334.575,85.9272,274.1892,0.00031118,4.67e-05,0.0,0 STARLINK-5099,1 54009U 22125AX  23255.64738544  .00004670  00000-0  31118-3 0  9992,2 54009  53.2186 334.5750 0001501  85.9272 274.1892 15.08855529 52280,6917.833,95.437,540.736,538.66,0.0
54009.0,STARLINK-5099,PAYLOAD,2023-09-13 10:36:51,15.08861981,0.0001357,53.2175,331.0068,92.9354,267.1794,0.00071571,0.00011128,0.0,0 STARLINK-5099,1 54009U 22125AX  23256.44226489  .00011128  00000-0  71571-3 0  9994,2 54009  53.2175 331.0068 0001357  92.9354 267.1794 15.08861981 52406,6917.813,95.436,540.617,538.739,0.0
54009.0,STARLINK-5099,PAYLOAD,2023-09-13 12:12:14,15.08863896,0.0001441,53.2178,330.7093,97.8068,262.3088,0.0011353,0.00017838,0.0,0 STARLINK-5099,1 54009U 22125AX  23256.50850488  .00017838  00000-0  11353-2 0  9998,2 54009  53.2178 330.7093 0001441  97.8068 262.3088 15.08863896 52368,6917.807,95.436,540.669,538.675,0.0
54009.0,STARLINK-5099,PAYLOAD,2023-09-13 21:44:34,15.08840747,0.0002089,53.218,328.9253,80.52,279.6028,2.5707e-05,1.21e-06,0.0,0 STARLINK-5099,1 54009U 22125AX  23256.90595026  .00000121  00000-0  25707-4 0  9993,2 54009  53.2180 328.9253 0002089  80.5200 279.6028 15.08840747 52426,6917.878,95.438,541.188,538.298,0.0
54009.0,STARLINK-5099,PAYLOAD,2023-09-14 10:27:40,15.08807891,0.0001463,53.2178,326.5475,93.633,266.4829,-6.6812e-05,-1.35e-05,0.0,0 STARLINK-5099,1 54009U 22125AX  23257.43588198 -.00001350  00000-0 -66812-4 0  9993,2 54009  53.2178 326.5475 0001463  93.6330 266.4829 15.08807891 52557,6917.979,95.44,540.856,538.831,0.0
54009.0,STARLINK-5099,PAYLOAD,2023-09-14 12:03:03,15.08809397,0.0001437,53.2174,326.2499,84.1968,275.9187,0.00012105,1.638e-05,0.0,0 STARLINK-5099,1 54009U 22125AX  23257.50212414  .00001638  00000-0  12105-3 0  9998,2 54009  53.2174 326.2499 0001437  84.1968 275.9187 15.08809397 52510,6917.974,95.439,540.833,538.845,0.0
54009.0,STARLINK-5099,PAYLOAD,2023-09-14 13:38:26,15.08812358,0.0001405,53.2173,325.9524,82.149,277.9661,0.00028777,4.291e-05,0.0,0 STARLINK-5099,1 54009U 22125AX  23257.56836528  .00004291  00000-0  28777-3 0  9992,2 54009  53.2173 325.9524 0001405  82.1490 277.9661 15.08812358 52528,6917.965,95.439,540.802,538.858,0.0
54009.0,STARLINK-5099,PAYLOAD,2023-09-15 10:18:28,15.08837378,0.000154,53.2168,322.0889,72.3965,287.7195,0.00127,0.0001998,0.0,0 STARLINK-5099,1 54009U 22125AX  23258.42949855  .00019980  00000-0  12700-2 0  9995,2 54009  53.2168 322.0889 0001540  72.3965 287.7195 15.08837378 52702,6917.888,95.438,540.819,538.688,0.0
54009.0,STARLINK-5099,PAYLOAD,2023-09-15 11:53:51,15.08837728,0.0001424,53.2165,321.7892,71.6258,288.4889,0.0011784,0.00018515,0.0,0 STARLINK-5099,1 54009U 22125AX  23258.49573827  .00018515  00000-0  11784-2 0  9998,2 54009  53.2165 321.7892 0001424  71.6258 288.4889 15.08837728 52669,6917.887,95.438,540.737,538.767,0.0
54009.0,STARLINK-5099,PAYLOAD,2023-09-16 11:44:37,15.08875595,0.0001508,53.2156,317.329,68.0193,292.0959,0.0010614,0.00016661,0.0,0 STARLINK-5099,1 54009U 22125AX  23259.48932483  .00016661  00000-0  10614-2 0  9996,2 54009  53.2156 317.3290 0001508  68.0193 292.0959 15.08875595 52813,6917.772,95.435,540.68,538.593,0.0
54009.0,STARLINK-5099,PAYLOAD,2023-09-16 16:30:46,15.08883187,0.0001473,53.2156,316.4361,69.71,290.4051,0.0010916,0.00017148,0.0,0 STARLINK-5099,1 54009U 22125AX  23259.68803920  .00017148  00000-0  10916-2 0  9997,2 54009  53.2156 316.4361 0001473  69.7100 290.4051 15.08883187 52898,6917.748,95.435,540.632,538.594,0.0
54009.0,STARLINK-5099,PAYLOAD,2023-09-17 10:00:01,15.08861469,0.000153,53.216,313.1641,74.5129,285.6033,0.00062209,9.632e-05,0.0,0 STARLINK-5099,1 54009U 22125AX  23260.41668014  .00009632  00000-0  62209-3 0  9995,2 54009  53.2160 313.1641 0001530  74.5129 285.6033 15.08861469 53006,6917.815,95.436,540.738,538.621,0.0
54009.0,STARLINK-5099,PAYLOAD,2023-09-18 06:40:01,15.08843282,0.0001818,53.2154,309.2975,90.0083,270.1117,0.00055597,8.572e-05,0.0,0 STARLINK-5099,1 54009U 22125AX  23261.27779962  .00008572  00000-0  55597-3 0  9999,2 54009  53.2154 309.2975 0001818  90.0083 270.1117 15.08843282 53135,6917.87,95.437,540.993,538.478,0.0
